[
    {
        "Altitude(m)": 610399.5191848396,
        "Argument of Periapsis(deg)": 0.0,
        "Eccentricity": 0.0,
        "Inclination(deg)": 60.0,
        "Latitude(deg)": 52.111308313054735,
        "Longitude(deg)": -142.41559245219634,
        "Mean Anomaly(deg)": 65.45449999999998,
        "RAAN(deg)": 270.0,
        "Satellite Name": "Test1 1192",
        "Satellite Number": 1192,
        "Semi-Major Axis(m)": 6980739.136638005,
        "Time(s)": 0
    },
    {
        "Altitude(m)": 610481.6699108601,
        "Argument of Periapsis(deg)": 0.00010418945913296404,
        "Eccentricity": 0.0,
        "Inclination(deg)": 60.0,
        "Latitude(deg)": 52.47090948576775,
        "Longitude(deg)": -141.63345538493888,
        "Mean Anomaly(deg)": 66.07460614546183,
        "RAAN(deg)": 269.99957995086027,
        "Satellite Name": "Test1 1192",
        "Satellite Number": 1192,
        "Semi-Major Axis(m)": 6980739.136638005,
        "Time(s)": 10
    }
]